H1 CPF 01  gfz 2022 10 03 12  7762 terrasarx 
H2 0702601  6201 31698    2022 10 03 12 59 42 2022 10 08 00 00 42   120 1 1  0 0 0
H9
10 0 59856  10062.000000  0   -4584802.241  -4830576.770   1753949.316
10 0 59856  10182.000000  0   -4513448.154  -4497290.558   2610765.134
10 0 59856  10302.000000  0   -4356668.531  -4087359.502   3421602.340
10 0 59856  10422.000000  0   -4115949.136  -3609443.268   4172189.856
10 0 59856  10542.000000  0   -3794413.180  -3073355.794   4849330.910
10 0 59856  10662.000000  0   -3396779.294  -2489858.568   5441135.176
10 0 59856  10782.000000  0   -2929288.865  -1870440.875   5937224.779
10 0 59856  10902.000000  0   -2399603.774  -1227090.776   6328912.945
10 0 59856  11022.000000  0   -1816676.182   -572059.576   6609351.899
10 0 59856  11142.000000  0   -1190591.975     82373.957   6773645.585
10 0 59856  11262.000000  0    -532394.606    724132.266   6818928.000
10 0 59856  11382.000000  0     146109.327   1341560.888   6744410.562
10 0 59856  11502.000000  0     832561.399   1923639.830   6551395.305
10 0 59856  11622.000000  0    1514276.019   2460180.362   6243252.992
10 0 59856  11742.000000  0    2178473.817   2942003.262   5825367.671
10 0 59856  11862.000000  0    2812521.168   3361097.962   5305049.249
10 0 59856  11982.000000  0    3404173.179   3710759.911   4691411.968
10 0 59856  12102.000000  0    3941812.814   3985701.111   3995218.503
10 0 59856  12222.000000  0    4414682.216   4182134.331   3228697.863
10 0 59856  12342.000000  0    4813106.063   4297828.663   2405330.796
10 0 59856  12462.000000  0    5128692.842   4332131.615   1539610.297
10 0 59856  12582.000000  0    5354515.762   4285960.297    646782.383
10 0 59856  12702.000000  0    5485265.331   4161759.552   -257430.407
10 0 59856  12822.000000  0    5517368.969   3963428.669  -1157115.175
10 0 59856  12942.000000  0    5449076.023   3696218.545  -2036457.035
10 0 59856  13062.000000  0    5280505.804   3366601.760  -2880024.349
10 0 59856  13182.000000  0    5013657.991   2982120.186  -3673043.855
10 0 59856  13302.000000  0    4652386.297   2551214.674  -4401661.567
10 0 59856  13422.000000  0    4202334.696   2083038.838  -5053183.864
10 0 59856  13542.000000  0    3670840.063   1587263.358  -5616292.101
10 0 59856  13662.000000  0    3066804.285   1073876.522  -6081230.436
10 0 59856  13782.000000  0    2400538.015    552984.285  -6439964.507
10 0 59856  13902.000000  0    1683580.527     34614.132  -6686308.024
10 0 59856  14022.000000  0     928500.465   -471473.734  -6816019.464
10 0 59856  14142.000000  0     148676.931   -955966.359  -6826868.240
10 0 59856  14262.000000  0    -641933.193  -1410164.712  -6718666.946
10 0 59856  14382.000000  0   -1429038.314  -1826135.308  -6493274.648
10 0 59856  14502.000000  0   -2198264.836  -2196846.368  -6154568.999
10 0 59856  14622.000000  0   -2935413.904  -2516285.238  -5708385.950
10 0 59856  14742.000000  0   -3626719.366  -2779556.274  -5162430.293
10 0 59856  14862.000000  0   -4259105.737  -2982958.509  -4526154.830
10 0 59856  14982.000000  0   -4820438.742  -3124039.757  -3810607.049
10 0 59856  15102.000000  0   -5299763.879  -3201626.211  -3028246.793
10 0 59856  15222.000000  0   -5687528.528  -3215826.880  -2192735.794
10 0 59856  15342.000000  0   -5975781.174  -3168011.767  -1318701.587
10 0 59856  15462.000000  0   -6158342.663  -3060764.164   -421480.573
10 0 59856  15582.000000  0   -6230944.794  -2897807.356    483155.549
10 0 59856  15702.000000  0   -6191332.622  -2683907.737   1379284.251
10 0 59856  15822.000000  0   -6039325.665  -2424756.077   2251122.632
10 0 59856  15942.000000  0   -5776835.580  -2126829.546   3083314.182
10 0 59856  16062.000000  0   -5407843.722  -1797239.541   3861206.627
10 0 59856  16182.000000  0   -4938334.867  -1443567.671   4571116.848
10 0 59856  16302.000000  0   -4376190.948  -1073694.860   5200572.406
10 0 59856  16422.000000  0   -3731050.989   -695629.282   5738528.849
10 0 59856  16542.000000  0   -3014138.075   -317335.193   6175561.299
10 0 59856  16662.000000  0   -2238055.893     53433.643   6504024.951
10 0 59856  16782.000000  0   -1416560.594    409290.482   6718181.834
10 0 59856  16902.000000  0    -564313.939    743360.324   6814294.849
10 0 59856  17022.000000  0     303378.951   1049411.384   6790688.497
10 0 59856  17142.000000  0    1170843.546   1321970.615   6647776.094
10 0 59856  17262.000000  0    2022318.128   1556421.920   6388052.972
10 0 59856  17382.000000  0    2842239.205   1749084.434   6016055.472
10 0 59856  17502.000000  0    3615526.993   1897270.524   5538287.410
10 0 59856  17622.000000  0    4327865.893   1999322.300   4963111.664
10 0 59856  17742.000000  0    4965973.310   2054626.821   4300610.472
10 0 59856  17862.000000  0    5517856.169   2063609.790   3562415.253
10 0 59856  17982.000000  0    5973046.360   2027705.301   2761502.208
10 0 59856  18102.000000  0    6322806.433   1949304.434   1911964.498
10 0 59856  18222.000000  0    6560307.290   1831683.118   1028761.101
10 0 59856  18342.000000  0    6680767.079   1678909.792    127446.390
10 0 59856  18462.000000  0    6681550.360   1495737.268   -776111.983
10 0 59856  18582.000000  0    6562222.878   1287479.809  -1666021.895
10 0 59856  18702.000000  0    6324563.269   1059878.065  -2526653.064
10 0 59856  18822.000000  0    5972530.577    818956.792  -3342918.570
10 0 59856  18942.000000  0    5512187.507    570879.579  -4100542.926
10 0 59856  19062.000000  0    4951583.214    321803.290  -4786311.859
10 0 59856  19182.000000  0    4300599.347     77735.866  -5388297.785
10 0 59856  19302.000000  0    3570765.270   -155598.448  -5896058.922
10 0 59856  19422.000000  0    2775045.918   -372884.132  -6300811.282
10 0 59856  19542.000000  0    1927605.343   -569327.649  -6595569.381
10 0 59856  19662.000000  0    1043554.141   -740756.671  -6775255.015
10 0 59856  19782.000000  0     138682.432   -883703.988  -6836776.807
10 0 59856  19902.000000  0    -770817.734   -995473.775  -6779076.584
10 0 59856  20022.000000  0   -1668634.755  -1074190.742  -6603145.709
10 0 59856  20142.000000  0   -2538623.882  -1118830.886  -6312010.005
10 0 59856  20262.000000  0   -3365090.802  -1129233.570  -5910681.991
10 0 59856  20382.000000  0   -4133070.046  -1106095.256  -5406085.046
10 0 59856  20502.000000  0   -4828597.283  -1050944.427  -4806945.577
10 0 59856  20622.000000  0   -5438967.083   -966097.994  -4123653.192
10 0 59856  20742.000000  0   -5952972.672   -854600.148  -3368091.316
10 0 59856  20862.000000  0   -6361123.089   -720144.023  -2553438.440
10 0 59856  20982.000000  0   -6655830.801   -566977.690  -1693942.481
10 0 59856  21102.000000  0   -6831565.885   -399797.272   -804672.563
10 0 59856  21222.000000  0   -6884971.958   -223627.698     98749.916
10 0 59856  21342.000000  0   -6814936.799    -43694.790   1000432.262
10 0 59856  21462.000000  0   -6622620.452    134706.836   1884497.580
10 0 59856  21582.000000  0   -6311437.168    306347.443   2735373.776
10 0 59856  21702.000000  0   -5886991.363    466194.287   3538076.711
10 0 59856  21822.000000  0   -5356969.031    609538.604   4278480.857
10 0 59856  21942.000000  0   -4730988.871    732113.829   4943571.223
10 0 59856  22062.000000  0   -4020417.108    830202.363   5521671.969
10 0 59856  22182.000000  0   -3238152.017    900728.759   6002648.568
10 0 59856  22302.000000  0   -2398381.559    941336.727   6378081.614
10 0 59856  22422.000000  0   -1516319.348    950449.286   6641409.169
10 0 59856  22542.000000  0    -607923.981    927310.904   6788034.569
10 0 59856  22662.000000  0     310390.555    872010.190   6815400.524
10 0 59856  22782.000000  0    1222050.490    785483.240   6723030.499
10 0 59856  22902.000000  0    2110620.011    669498.035   6512536.594
10 0 59856  23022.000000  0    2960096.461    526619.596   6187593.620
10 0 59856  23142.000000  0    3755199.685    360156.370   5753879.795
10 0 59856  23262.000000  0    4481649.917    174088.703   5218982.857
10 0 59856  23382.000000  0    5126429.068    -27019.660   4592273.407
10 0 59856  23502.000000  0    5678021.505   -238125.387   3884746.543
10 0 59856  23622.000000  0    6126629.849   -453821.743   3108832.895
10 0 59856  23742.000000  0    6464360.117   -668465.406   2278180.685
10 0 59856  23862.000000  0    6685369.253   -876311.167   1407412.345
10 0 59856  23982.000000  0    6785973.184  -1071651.396    511863.055
10 0 59856  24102.000000  0    6764714.423  -1248956.198   -392696.482
10 0 59856  24222.000000  0    6622382.711  -1403011.246  -1290347.907
10 0 59856  24342.000000  0    6361989.959  -1529048.854  -2165313.742
10 0 59856  24462.000000  0    5988700.641  -1622869.501  -3002242.377
10 0 59856  24582.000000  0    5509719.840  -1680950.789  -3786481.639
10 0 59856  24702.000000  0    4934143.124  -1700540.805  -4504336.179
10 0 59856  24822.000000  0    4272772.707  -1679733.985  -5143304.100
10 0 59856  24942.000000  0    3537903.915  -1617528.947  -5692288.962
10 0 59856  25062.000000  0    2743087.608  -1513866.499  -6141782.814
10 0 59856  25182.000000  0    1902876.013  -1369646.851  -6484019.659
10 0 59856  25302.000000  0    1032554.828  -1186726.357  -6713099.447
10 0 59856  25422.000000  0     147866.800   -967895.150  -6825079.208
10 0 59856  25542.000000  0    -735268.289   -716835.043  -6818033.362
10 0 59856  25662.000000  0   -1601033.276   -438058.779  -6692083.188
10 0 59856  25782.000000  0   -2433990.896   -136830.621  -6449394.735
10 0 59856  25902.000000  0   -3219352.560    180929.776  -6094144.508
10 0 59856  26022.000000  0   -3943236.145    508759.292  -5632456.150
10 0 59856  26142.000000  0   -4592911.739    839777.753  -5072305.469
10 0 59856  26262.000000  0   -5157028.601   1166826.262  -4423394.571
10 0 59856  26382.000000  0   -5625821.802   1482617.205  -3696995.514
10 0 59856  26502.000000  0   -5991291.104   1779891.503  -2905762.961
99
